{"type": "FeatureCollection", "features": [{"type": "Feature", "geometry": {"type": "Polygon", "coordinates": [[[97.43111141892632, 4.4881321436795725], [97.51309461892632, 4.4881321436795725], [97.51309461892632, 4.570115343679572], [97.43111141892632, 4.570115343679572], [97.43111141892632, 4.4881321436795725]]]}, "properties": {"provinsi": "Aceh", "ip": "BPDAS Krueng Aceh", "status_ro": "Dalam RO", "planting_area_ha": 267.82, "ton_co2e": 164.57}}, {"type": "Feature", "geometry": {"type": "Polygon", "coordinates": [[[97.91286060811338, 2.4316780236604902], [97.99484380811337, 2.4316780236604902], [97.99484380811337, 2.51366122366049], [97.91286060811338, 2.51366122366049], [97.91286060811338, 2.4316780236604902]]]}, "properties": {"provinsi": "Aceh", "ip": "BPHL Wilayah I Aceh", "status_ro": "Dalam RO", "planting_area_ha": 10.48, "ton_co2e": 133.56}}, {"type": "Feature", "geometry": {"type": "Polygon", "coordinates": [[[97.16321885973483, 4.028701196959775], [97.24520205973482, 4.028701196959775], [97.24520205973482, 4.110684396959774], [97.16321885973483, 4.110684396959774], [97.16321885973483, 4.028701196959775]]]}, "properties": {"provinsi": "Aceh", "ip": "BPDAS Krueng Aceh", "status_ro": "Luar RO", "planting_area_ha": 651.69, "ton_co2e": 225.71}}, {"type": "Feature", "geometry": {"type": "Polygon", "coordinates": [[[97.64566869963056, 4.562891600566298], [97.72765189963056, 4.562891600566298], [97.72765189963056, 4.644874800566297], [97.64566869963056, 4.644874800566297], [97.64566869963056, 4.562891600566298]]]}, "properties": {"provinsi": "Aceh", "ip": "BPHL Wilayah I Aceh", "status_ro": "Luar RO", "planting_area_ha": 46.02, "ton_co2e": 521.7}}, {"type": "Feature", "geometry": {"type": "Polygon", "coordinates": [[[99.98335426118456, 2.6385712304203204], [100.08217826118457, 2.6385712304203204], [100.08217826118457, 2.73739523042032], [99.98335426118456, 2.73739523042032], [99.98335426118456, 2.6385712304203204]]]}, "properties": {"provinsi": "Sumatera Utara", "ip": "Balai PHL Wilayah II Medan", "status_ro": "Dalam RO", "planting_area_ha": 46.54, "ton_co2e": 132.19}}, {"type": "Feature", "geometry": {"type": "Polygon", "coordinates": [[[98.74813240819171, 2.427985786840698], [98.84695640819172, 2.427985786840698], [98.84695640819172, 2.5268097868406976], [98.74813240819171, 2.5268097868406976], [98.74813240819171, 2.427985786840698]]]}, "properties": {"provinsi": "Sumatera Utara", "ip": "BPDAS Wampu Sei Ular", "status_ro": "Dalam RO", "planting_area_ha": 21.27, "ton_co2e": 36.42}}, {"type": "Feature", "geometry": {"type": "Polygon", "coordinates": [[[99.93570670945581, 2.6988463234403133], [100.03453070945582, 2.6988463234403133], [100.03453070945582, 2.797670323440313], [99.93570670945581, 2.797670323440313], [99.93570670945581, 2.6988463234403133]]]}, "properties": {"provinsi": "Sumatera Utara", "ip": "BPDAS Asahan Barumun", "status_ro": "Dalam RO", "planting_area_ha": 130.94, "ton_co2e": 37.99}}, {"type": "Feature", "geometry": {"type": "Polygon", "coordinates": [[[99.42545539881466, 1.6652292850303423], [99.52427939881467, 1.6652292850303423], [99.52427939881467, 1.7640532850303423], [99.42545539881466, 1.7640532850303423], [99.42545539881466, 1.6652292850303423]]]}, "properties": {"provinsi": "Sumatera Utara", "ip": "Balai PHL Wilayah II Medan", "status_ro": "Luar RO", "planting_area_ha": 911.3, "ton_co2e": 191.77}}, {"type": "Feature", "geometry": {"type": "Polygon", "coordinates": [[[99.45798728332412, 2.660593095559407], [99.55681128332412, 2.660593095559407], [99.55681128332412, 2.7594170955594066], [99.45798728332412, 2.7594170955594066], [99.45798728332412, 2.660593095559407]]]}, "properties": {"provinsi": "Sumatera Utara", "ip": "BPDAS Wampu Sei Ular", "status_ro": "Luar RO", "planting_area_ha": 610.58, "ton_co2e": 953.72}}, {"type": "Feature", "geometry": {"type": "Polygon", "coordinates": [[[98.20186035380786, 3.1495003517649645], [98.30068435380787, 3.1495003517649645], [98.30068435380787, 3.248324351764964], [98.20186035380786, 3.248324351764964], [98.20186035380786, 3.1495003517649645]]]}, "properties": {"provinsi": "Sumatera Utara", "ip": "BPDAS Asahan Barumun", "status_ro": "Luar RO", "planting_area_ha": 745.13, "ton_co2e": 1211.04}}, {"type": "Feature", "geometry": {"type": "Polygon", "coordinates": [[[101.19656020946765, -0.18357492232216327], [101.27752200946766, -0.18357492232216327], [101.27752200946766, -0.10261312232216328], [101.19656020946765, -0.10261312232216328], [101.19656020946765, -0.18357492232216327]]]}, "properties": {"provinsi": "Riau", "ip": "BPDAS Indragiri Rokan", "status_ro": "Dalam RO", "planting_area_ha": 14.6, "ton_co2e": 320.58}}, {"type": "Feature", "geometry": {"type": "Polygon", "coordinates": [[[103.30776415457541, -0.011099265660297133], [103.38872595457542, -0.011099265660297133], [103.38872595457542, 0.06986253433970287], [103.30776415457541, 0.06986253433970287], [103.30776415457541, -0.011099265660297133]]]}, "properties": {"provinsi": "Riau", "ip": "DLH Riau", "status_ro": "Dalam RO", "planting_area_ha": 33.9, "ton_co2e": 278.98}}, {"type": "Feature", "geometry": {"type": "Polygon", "coordinates": [[[102.47621847475678, 0.28637599627553806], [102.55718027475679, 0.28637599627553806], [102.55718027475679, 0.36733779627553803], [102.47621847475678, 0.36733779627553803], [102.47621847475678, 0.28637599627553806]]]}, "properties": {"provinsi": "Riau", "ip": "Yayasan Paradigma", "status_ro": "Dalam RO", "planting_area_ha": 88.41, "ton_co2e": 342.94}}, {"type": "Feature", "geometry": {"type": "Polygon", "coordinates": [[[101.51252668527772, -0.3615004519854636], [101.59348848527773, -0.3615004519854636], [101.59348848527773, -0.2805386519854636], [101.51252668527772, -0.2805386519854636], [101.51252668527772, -0.3615004519854636]]]}, "properties": {"provinsi": "Riau", "ip": "BPDAS Indragiri Rokan", "status_ro": "Luar RO", "planting_area_ha": 182.96, "ton_co2e": 519.68}}, {"type": "Feature", "geometry": {"type": "Polygon", "coordinates": [[[100.42194307576162, 1.1382048737630088], [100.50290487576163, 1.1382048737630088], [100.50290487576163, 1.2191666737630087], [100.42194307576162, 1.2191666737630087], [100.42194307576162, 1.1382048737630088]]]}, "properties": {"provinsi": "Riau", "ip": "DLH Riau", "status_ro": "Luar RO", "planting_area_ha": 91.79, "ton_co2e": 1182.87}}, {"type": "Feature", "geometry": {"type": "Polygon", "coordinates": [[[102.99051493635118, 0.3838565572014549], [103.07147673635119, 0.3838565572014549], [103.07147673635119, 0.46481835720145487], [102.99051493635118, 0.46481835720145487], [102.99051493635118, 0.3838565572014549]]]}, "properties": {"provinsi": "Riau", "ip": "Yayasan Paradigma", "status_ro": "Luar RO", "planting_area_ha": 52.99, "ton_co2e": 553.63}}, {"type": "Feature", "geometry": {"type": "Polygon", "coordinates": [[[108.20653672047334, 3.8916585895534346], [108.32796052047334, 3.8916585895534346], [108.32796052047334, 4.013082389553435], [108.20653672047334, 4.013082389553435], [108.20653672047334, 3.8916585895534346]]]}, "properties": {"provinsi": "Kepulauan Riau", "ip": "BPHL Wilayah III Pekanbaru", "status_ro": "Dalam RO", "planting_area_ha": 1.3, "ton_co2e": 0.01}}, {"type": "Feature", "geometry": {"type": "Polygon", "coordinates": [[[108.02106230116829, 3.95411898508099], [108.14248610116829, 3.95411898508099], [108.14248610116829, 4.07554278508099], [108.02106230116829, 4.07554278508099], [108.02106230116829, 3.95411898508099]]]}, "properties": {"provinsi": "Kepulauan Riau", "ip": "BPHL Wilayah III Pekanbaru", "status_ro": "Luar RO", "planting_area_ha": 4.7, "ton_co2e": 0.05}}, {"type": "Feature", "geometry": {"type": "Polygon", "coordinates": [[[99.93582736805153, -0.3602873279593941], [100.02541456805154, -0.3602873279593941], [100.02541456805154, -0.27070012795939413], [99.93582736805153, -0.27070012795939413], [99.93582736805153, -0.3602873279593941]]]}, "properties": {"provinsi": "Sumatera Barat", "ip": "BPDAS Agam Kuantan", "status_ro": "Dalam RO", "planting_area_ha": 1.15, "ton_co2e": 3.17}}, {"type": "Feature", "geometry": {"type": "Polygon", "coordinates": [[[101.20073208776483, -0.6973492824002478], [101.29031928776485, -0.6973492824002478], [101.29031928776485, -0.6077620824002479], [101.20073208776483, -0.6077620824002479], [101.20073208776483, -0.6973492824002478]]]}, "properties": {"provinsi": "Sumatera Barat", "ip": "BPDAS Indragiri Rokan", "status_ro": "Dalam RO", "planting_area_ha": 4.48, "ton_co2e": 6.02}}, {"type": "Feature", "geometry": {"type": "Polygon", "coordinates": [[[101.2446585928033, -0.7279015630317729], [101.33424579280332, -0.7279015630317729], [101.33424579280332, -0.6383143630317729], [101.2446585928033, -0.6383143630317729], [101.2446585928033, -0.7279015630317729]]]}, "properties": {"provinsi": "Sumatera Barat", "ip": "BPHL Wilayah III Pekanbaru", "status_ro": "Dalam RO", "planting_area_ha": 4.67, "ton_co2e": 2.15}}, {"type": "Feature", "geometry": {"type": "Polygon", "coordinates": [[[100.41783357798371, -0.6620604674446557], [100.50742077798373, -0.6620604674446557], [100.50742077798373, -0.5724732674446558], [100.41783357798371, -0.5724732674446558], [100.41783357798371, -0.6620604674446557]]]}, "properties": {"provinsi": "Sumatera Barat", "ip": "BNGI", "status_ro": "Dalam RO", "planting_area_ha": 9.83, "ton_co2e": 10.97}}, {"type": "Feature", "geometry": {"type": "Polygon", "coordinates": [[[100.59231574918617, -0.05230014215937629], [100.68190294918618, -0.05230014215937629], [100.68190294918618, 0.0372870578406237], [100.59231574918617, 0.0372870578406237], [100.59231574918617, -0.05230014215937629]]]}, "properties": {"provinsi": "Sumatera Barat", "ip": "Dinas Kehutanan Sumatera Barat", "status_ro": "Dalam RO", "planting_area_ha": 9.02, "ton_co2e": 10.46}}, {"type": "Feature", "geometry": {"type": "Polygon", "coordinates": [[[99.77108563189957, -0.25863678402256274], [99.86067283189958, -0.25863678402256274], [99.86067283189958, -0.16904958402256276], [99.77108563189957, -0.16904958402256276], [99.77108563189957, -0.25863678402256274]]]}, "properties": {"provinsi": "Sumatera Barat", "ip": "BPDAS Agam Kuantan", "status_ro": "Luar RO", "planting_area_ha": 86.85, "ton_co2e": 364.44}}, {"type": "Feature", "geometry": {"type": "Polygon", "coordinates": [[[100.41071581641805, 0.13282869033208677], [100.50030301641806, 0.13282869033208677], [100.50030301641806, 0.22241589033208675], [100.41071581641805, 0.22241589033208675], [100.41071581641805, 0.13282869033208677]]]}, "properties": {"provinsi": "Sumatera Barat", "ip": "BPDAS Indragiri Rokan", "status_ro": "Luar RO", "planting_area_ha": 134.59, "ton_co2e": 85.2}}, {"type": "Feature", "geometry": {"type": "Polygon", "coordinates": [[[101.47101723233679, -1.6814921246664059], [101.5606044323368, -1.6814921246664059], [101.5606044323368, -1.5919049246664059], [101.47101723233679, -1.5919049246664059], [101.47101723233679, -1.6814921246664059]]]}, "properties": {"provinsi": "Sumatera Barat", "ip": "BPHL Wilayah III Pekanbaru", "status_ro": "Luar RO", "planting_area_ha": 429.67, "ton_co2e": 158.22}}, {"type": "Feature", "geometry": {"type": "Polygon", "coordinates": [[[99.84522037565984, 0.13097083889221905], [99.93480757565985, 0.13097083889221905], [99.93480757565985, 0.22055803889221903], [99.84522037565984, 0.22055803889221903], [99.84522037565984, 0.13097083889221905]]]}, "properties": {"provinsi": "Sumatera Barat", "ip": "BNGI", "status_ro": "Luar RO", "planting_area_ha": 280.59, "ton_co2e": 238.06}}, {"type": "Feature", "geometry": {"type": "Polygon", "coordinates": [[[100.63721411910669, -0.09130664279788925], [100.7268013191067, -0.09130664279788925], [100.7268013191067, -0.0017194427978892632], [100.63721411910669, -0.0017194427978892632], [100.63721411910669, -0.09130664279788925]]]}, "properties": {"provinsi": "Sumatera Barat", "ip": "Dinas Kehutanan Sumatera Barat", "status_ro": "Luar RO", "planting_area_ha": 189.15, "ton_co2e": 414.25}}, {"type": "Feature", "geometry": {"type": "Polygon", "coordinates": [[[102.91888004250616, -1.2780122323870884], [102.98626884250616, -1.2780122323870884], [102.98626884250616, -1.2106234323870886], [102.91888004250616, -1.2106234323870886], [102.91888004250616, -1.2780122323870884]]]}, "properties": {"provinsi": "Jambi", "ip": "Balai PHL Wilayah III Jambi", "status_ro": "Dalam RO", "planting_area_ha": 240.93, "ton_co2e": 399.08}}, {"type": "Feature", "geometry": {"type": "Polygon", "coordinates": [[[102.78666414077804, -1.0644385401135463], [102.85405294077805, -1.0644385401135463], [102.85405294077805, -0.9970497401135464], [102.78666414077804, -0.9970497401135464], [102.78666414077804, -1.0644385401135463]]]}, "properties": {"provinsi": "Jambi", "ip": "BPDAS Batanghari", "status_ro": "Dalam RO", "planting_area_ha": 461.81, "ton_co2e": 238.6}}, {"type": "Feature", "geometry": {"type": "Polygon", "coordinates": [[[103.09644537311893, -1.4263760032012602], [103.16383417311893, -1.4263760032012602], [103.16383417311893, -1.3589872032012604], [103.09644537311893, -1.3589872032012604], [103.09644537311893, -1.4263760032012602]]]}, "properties": {"provinsi": "Jambi", "ip": "Balai PHL Wilayah III Jambi", "status_ro": "Luar RO", "planting_area_ha": 48.45, "ton_co2e": 94.08}}, {"type": "Feature", "geometry": {"type": "Polygon", "coordinates": [[[101.88725417691693, -2.5586855941618136], [101.95464297691693, -2.5586855941618136], [101.95464297691693, -2.491296794161814], [101.88725417691693, -2.491296794161814], [101.88725417691693, -2.5586855941618136]]]}, "properties": {"provinsi": "Jambi", "ip": "BPDAS Batanghari", "status_ro": "Luar RO", "planting_area_ha": 295.7, "ton_co2e": 218.21}}, {"type": "Feature", "geometry": {"type": "Polygon", "coordinates": [[[103.71287232458683, -3.041231354303188], [103.79600692458682, -3.041231354303188], [103.79600692458682, -2.9580967543031877], [103.71287232458683, -2.9580967543031877], [103.71287232458683, -3.041231354303188]]]}, "properties": {"provinsi": "Sumatera Selatan", "ip": "Balai PHL Wilayah V Palembang", "status_ro": "Dalam RO", "planting_area_ha": 1092.56, "ton_co2e": 1698.04}}, {"type": "Feature", "geometry": {"type": "Polygon", "coordinates": [[[104.13047536734557, -1.8837951328662974], [104.21360996734556, -1.8837951328662974], [104.21360996734556, -1.8006605328662977], [104.13047536734557, -1.8006605328662977], [104.13047536734557, -1.8837951328662974]]]}, "properties": {"provinsi": "Sumatera Selatan", "ip": "BPDAS Musi (PHL dan Penanaman Mangrove)", "status_ro": "Dalam RO", "planting_area_ha": 302.16, "ton_co2e": 1769.06}}, {"type": "Feature", "geometry": {"type": "Polygon", "coordinates": [[[104.73095382549947, -3.976570928545925], [104.81408842549946, -3.976570928545925], [104.81408842549946, -3.893436328545925], [104.73095382549947, -3.893436328545925], [104.73095382549947, -3.976570928545925]]]}, "properties": {"provinsi": "Sumatera Selatan", "ip": "Balai PHL Wilayah V Palembang", "status_ro": "Luar RO", "planting_area_ha": 43.28, "ton_co2e": 182.39}}, {"type": "Feature", "geometry": {"type": "Polygon", "coordinates": [[[103.29732621459803, -2.486664658321385], [103.38046081459802, -2.486664658321385], [103.38046081459802, -2.403530058321385], [103.29732621459803, -2.403530058321385], [103.29732621459803, -2.486664658321385]]]}, "properties": {"provinsi": "Sumatera Selatan", "ip": "BPDAS Musi (PHL dan Penanaman Mangrove)", "status_ro": "Luar RO", "planting_area_ha": 151.75, "ton_co2e": 302.43}}, {"type": "Feature", "geometry": {"type": "Polygon", "coordinates": [[[105.53239742577767, -1.6470729978841792], [105.60766322577769, -1.6470729978841792], [105.60766322577769, -1.5718071978841792], [105.53239742577767, -1.5718071978841792], [105.53239742577767, -1.6470729978841792]]]}, "properties": {"provinsi": "Kepulauan Bangka Belitung", "ip": "Direktorat Jenderal Perhutanan Sosial (PSKL Belitung)", "status_ro": "Dalam RO", "planting_area_ha": 9.76, "ton_co2e": 33.44}}, {"type": "Feature", "geometry": {"type": "Polygon", "coordinates": [[[106.49285891321738, -2.6707331592847336], [106.56812471321739, -2.6707331592847336], [106.56812471321739, -2.5954673592847333], [106.49285891321738, -2.5954673592847333], [106.49285891321738, -2.6707331592847336]]]}, "properties": {"provinsi": "Kepulauan Bangka Belitung", "ip": "Balai PHL Wilayah V Palembang", "status_ro": "Dalam RO", "planting_area_ha": 61.63, "ton_co2e": 33.36}}, {"type": "Feature", "geometry": {"type": "Polygon", "coordinates": [[[106.31971606091203, -2.825411564349273], [106.39498186091204, -2.825411564349273], [106.39498186091204, -2.7501457643492726], [106.31971606091203, -2.7501457643492726], [106.31971606091203, -2.825411564349273]]]}, "properties": {"provinsi": "Kepulauan Bangka Belitung", "ip": "Direktorat Jenderal Perhutanan Sosial (PSKL Belitung)", "status_ro": "Luar RO", "planting_area_ha": 58.0, "ton_co2e": 70.48}}, {"type": "Feature", "geometry": {"type": "Polygon", "coordinates": [[[106.17462239270894, -2.7278926574180358], [106.24988819270895, -2.7278926574180358], [106.24988819270895, -2.6526268574180354], [106.17462239270894, -2.6526268574180354], [106.17462239270894, -2.7278926574180358]]]}, "properties": {"provinsi": "Kepulauan Bangka Belitung", "ip": "Balai PHL Wilayah V Palembang", "status_ro": "Luar RO", "planting_area_ha": 82.08, "ton_co2e": 60.58}}, {"type": "Feature", "geometry": {"type": "Polygon", "coordinates": [[[104.54814773058767, -5.3559551477742176], [104.60194233058768, -5.3559551477742176], [104.60194233058768, -5.302160547774218], [104.54814773058767, -5.302160547774218], [104.54814773058767, -5.3559551477742176]]]}, "properties": {"provinsi": "Lampung", "ip": "BPDAS Way Seputih Way Sekampung", "status_ro": "Dalam RO", "planting_area_ha": 6.99, "ton_co2e": 13.65}}, {"type": "Feature", "geometry": {"type": "Polygon", "coordinates": [[[105.04438136410936, -5.388631898921441], [105.09817596410936, -5.388631898921441], [105.09817596410936, -5.334837298921441], [105.04438136410936, -5.334837298921441], [105.04438136410936, -5.388631898921441]]]}, "properties": {"provinsi": "Lampung", "ip": "Balai PHL Wilayah VI Lampung", "status_ro": "Dalam RO", "planting_area_ha": 12.95, "ton_co2e": 1.49}}, {"type": "Feature", "geometry": {"type": "Polygon", "coordinates": [[[105.66442518959089, -4.7592060656124575], [105.71821978959089, -4.7592060656124575], [105.71821978959089, -4.705411465612458], [105.66442518959089, -4.705411465612458], [105.66442518959089, -4.7592060656124575]]]}, "properties": {"provinsi": "Lampung", "ip": "BPDAS Way Seputih Way Sekampung", "status_ro": "Luar RO", "planting_area_ha": 344.76, "ton_co2e": 446.46}}, {"type": "Feature", "geometry": {"type": "Polygon", "coordinates": [[[105.50330302886252, -4.677277020619838], [105.55709762886252, -4.677277020619838], [105.55709762886252, -4.623482420619839], [105.50330302886252, -4.623482420619839], [105.50330302886252, -4.677277020619838]]]}, "properties": {"provinsi": "Lampung", "ip": "Balai PHL Wilayah VI Lampung", "status_ro": "Luar RO", "planting_area_ha": 256.59, "ton_co2e": 10.09}}, {"type": "Feature", "geometry": {"type": "Polygon", "coordinates": [[[107.35184707685856, -6.664982416628878], [107.40137447685855, -6.664982416628878], [107.40137447685855, -6.615455016628878], [107.35184707685856, -6.615455016628878], [107.35184707685856, -6.664982416628878]]]}, "properties": {"provinsi": "Jawa Barat", "ip": "BPHL Wilayah VII Ciamis", "status_ro": "Luar RO", "planting_area_ha": 47.26, "ton_co2e": 177.71}}, {"type": "Feature", "geometry": {"type": "Polygon", "coordinates": [[[107.1681204272585, -6.074932325746223], [107.21764782725849, -6.074932325746223], [107.21764782725849, -6.025404925746223], [107.1681204272585, -6.025404925746223], [107.1681204272585, -6.074932325746223]]]}, "properties": {"provinsi": "Jawa Barat", "ip": "BPDAS Cimanuk Citanduy", "status_ro": "Luar RO", "planting_area_ha": 40.67, "ton_co2e": 192.13}}, {"type": "Feature", "geometry": {"type": "Polygon", "coordinates": [[[108.35322158508532, -7.338171845839093], [108.40274898508531, -7.338171845839093], [108.40274898508531, -7.288644445839092], [108.35322158508532, -7.288644445839092], [108.35322158508532, -7.338171845839093]]]}, "properties": {"provinsi": "Jawa Barat", "ip": "BPDAS Citarum Ciliwung", "status_ro": "Luar RO", "planting_area_ha": 98.36, "ton_co2e": 200.66}}, {"type": "Feature", "geometry": {"type": "Polygon", "coordinates": [[[108.29533691318781, -7.640108256505958], [108.3448643131878, -7.640108256505958], [108.3448643131878, -7.590580856505958], [108.29533691318781, -7.590580856505958], [108.29533691318781, -7.640108256505958]]]}, "properties": {"provinsi": "Jawa Barat", "ip": "BNGI", "status_ro": "Luar RO", "planting_area_ha": 286.85, "ton_co2e": 46.89}}, {"type": "Feature", "geometry": {"type": "Polygon", "coordinates": [[[111.01833222641378, -7.831349302602454], [111.08104302641377, -7.831349302602454], [111.08104302641377, -7.768638502602454], [111.01833222641378, -7.768638502602454], [111.01833222641378, -7.831349302602454]]]}, "properties": {"provinsi": "Jawa Tengah", "ip": "BPDAS Pemali Jratun", "status_ro": "Luar RO", "planting_area_ha": 503.48, "ton_co2e": 543.49}}, {"type": "Feature", "geometry": {"type": "Polygon", "coordinates": [[[110.53588625067377, -7.520077154450303], [110.59859705067376, -7.520077154450303], [110.59859705067376, -7.457366354450303], [110.53588625067377, -7.457366354450303], [110.53588625067377, -7.520077154450303]]]}, "properties": {"provinsi": "Jawa Tengah", "ip": "BPDAS Solo", "status_ro": "Luar RO", "planting_area_ha": 495.64, "ton_co2e": 306.36}}, {"type": "Feature", "geometry": {"type": "Polygon", "coordinates": [[[108.86439512289363, -7.456974745320342], [108.92710592289362, -7.456974745320342], [108.92710592289362, -7.3942639453203425], [108.86439512289363, -7.3942639453203425], [108.86439512289363, -7.456974745320342]]]}, "properties": {"provinsi": "Jawa Tengah", "ip": "BPDAS Serayu Opak Progo", "status_ro": "Luar RO", "planting_area_ha": 128.4, "ton_co2e": 203.12}}, {"type": "Feature", "geometry": {"type": "Polygon", "coordinates": [[[113.54437032051547, -8.1983675820798], [113.65186832051546, -8.1983675820798], [113.65186832051546, -8.090869582079801], [113.54437032051547, -8.090869582079801], [113.54437032051547, -8.1983675820798]]]}, "properties": {"provinsi": "Jawa Timur", "ip": "BPDAS Brantas Sampean (Penanaman RHL dan Penanaman Mangrove)", "status_ro": "Dalam RO", "planting_area_ha": 24.94, "ton_co2e": 503.24}}, {"type": "Feature", "geometry": {"type": "Polygon", "coordinates": [[[113.09051522488046, -7.797746566493218], [113.19801322488046, -7.797746566493218], [113.19801322488046, -7.690248566493218], [113.09051522488046, -7.690248566493218], [113.09051522488046, -7.797746566493218]]]}, "properties": {"provinsi": "Jawa Timur", "ip": "BPDAS Brantas Sampean (Penanaman RHL dan Penanaman Mangrove)", "status_ro": "Luar RO", "planting_area_ha": 559.37, "ton_co2e": 11286.98}}, {"type": "Feature", "geometry": {"type": "Polygon", "coordinates": [[[115.10802968723883, -8.295364530073366], [115.13364588723883, -8.295364530073366], [115.13364588723883, -8.269748330073364], [115.10802968723883, -8.269748330073364], [115.10802968723883, -8.295364530073366]]]}, "properties": {"provinsi": "Bali", "ip": "Direktorat Jenderal Perhutanan Sosial (PSKL Buleleng)", "status_ro": "Dalam RO", "planting_area_ha": 35.17, "ton_co2e": 242.85}}, {"type": "Feature", "geometry": {"type": "Polygon", "coordinates": [[[115.36850316063297, -8.333791803039368], [115.39411936063297, -8.333791803039368], [115.39411936063297, -8.308175603039366], [115.36850316063297, -8.308175603039366], [115.36850316063297, -8.333791803039368]]]}, "properties": {"provinsi": "Bali", "ip": "BPDAS Unda Anyar", "status_ro": "Dalam RO", "planting_area_ha": 52.65, "ton_co2e": 0.58}}, {"type": "Feature", "geometry": {"type": "Polygon", "coordinates": [[[115.26903285193272, -8.60185198761934], [115.29464905193272, -8.60185198761934], [115.29464905193272, -8.576235787619337], [115.26903285193272, -8.576235787619337], [115.26903285193272, -8.60185198761934]]]}, "properties": {"provinsi": "Bali", "ip": "Balai PHL Wilayah IX Mataram", "status_ro": "Dalam RO", "planting_area_ha": 23.26, "ton_co2e": 317.12}}, {"type": "Feature", "geometry": {"type": "Polygon", "coordinates": [[[115.57439494242678, -8.377189344881565], [115.60001114242678, -8.377189344881565], [115.60001114242678, -8.351573144881563], [115.57439494242678, -8.351573144881563], [115.57439494242678, -8.377189344881565]]]}, "properties": {"provinsi": "Bali", "ip": "Direktorat Jenderal Perhutanan Sosial (PSKL Buleleng)", "status_ro": "Luar RO", "planting_area_ha": 15.39, "ton_co2e": 137.38}}, {"type": "Feature", "geometry": {"type": "Polygon", "coordinates": [[[114.80403172044643, -8.43040137963269], [114.82964792044643, -8.43040137963269], [114.82964792044643, -8.404785179632688], [114.80403172044643, -8.404785179632688], [114.80403172044643, -8.43040137963269]]]}, "properties": {"provinsi": "Bali", "ip": "BPDAS Unda Anyar", "status_ro": "Luar RO", "planting_area_ha": 41.59, "ton_co2e": 141.48}}, {"type": "Feature", "geometry": {"type": "Polygon", "coordinates": [[[114.96907013422398, -8.405166483590897], [114.99468633422399, -8.405166483590897], [114.99468633422399, -8.379550283590895], [114.96907013422398, -8.379550283590895], [114.96907013422398, -8.405166483590897]]]}, "properties": {"provinsi": "Bali", "ip": "Balai PHL Wilayah IX Mataram", "status_ro": "Luar RO", "planting_area_ha": 35.3, "ton_co2e": 186.82}}, {"type": "Feature", "geometry": {"type": "Polygon", "coordinates": [[[117.85208296925414, -8.21704700991897], [117.92258656925414, -8.21704700991897], [117.92258656925414, -8.146543409918971], [117.85208296925414, -8.146543409918971], [117.85208296925414, -8.21704700991897]]]}, "properties": {"provinsi": "Nusa Tenggara Barat", "ip": "BPHL Wilayah IX Mataram", "status_ro": "Dalam RO", "planting_area_ha": 0.04, "ton_co2e": 1.22}}, {"type": "Feature", "geometry": {"type": "Polygon", "coordinates": [[[116.89000437606643, -8.614197256071193], [116.96050797606642, -8.614197256071193], [116.96050797606642, -8.543693656071195], [116.89000437606643, -8.543693656071195], [116.89000437606643, -8.614197256071193]]]}, "properties": {"provinsi": "Nusa Tenggara Barat", "ip": "BPDAS Dodokan Mayosari", "status_ro": "Dalam RO", "planting_area_ha": 0.03, "ton_co2e": 0.59}}, {"type": "Feature", "geometry": {"type": "Polygon", "coordinates": [[[117.28645521751105, -8.655706668628875], [117.35695881751104, -8.655706668628875], [117.35695881751104, -8.585203068628877], [117.28645521751105, -8.585203068628877], [117.28645521751105, -8.655706668628875]]]}, "properties": {"provinsi": "Nusa Tenggara Barat", "ip": "BPHL Wilayah IX Mataram", "status_ro": "Luar RO", "planting_area_ha": 153.35, "ton_co2e": 3162.69}}, {"type": "Feature", "geometry": {"type": "Polygon", "coordinates": [[[117.90457494158407, -8.893702981165642], [117.97507854158407, -8.893702981165642], [117.97507854158407, -8.823199381165644], [117.90457494158407, -8.823199381165644], [117.90457494158407, -8.893702981165642]]]}, "properties": {"provinsi": "Nusa Tenggara Barat", "ip": "BPDAS Dodokan Mayosari", "status_ro": "Luar RO", "planting_area_ha": 81.21, "ton_co2e": 2902.68}}, {"type": "Feature", "geometry": {"type": "Polygon", "coordinates": [[[120.07693641236858, -8.639508426585987], [120.20226281236859, -8.639508426585987], [120.20226281236859, -8.514182026585988], [120.07693641236858, -8.514182026585988], [120.07693641236858, -8.639508426585987]]]}, "properties": {"provinsi": "Nusa Tenggara Timur", "ip": "Direktorat Jenderal Perhutanan Sosial (PSKL Ngada)", "status_ro": "Dalam RO", "planting_area_ha": 269.08, "ton_co2e": 54.87}}, {"type": "Feature", "geometry": {"type": "Polygon", "coordinates": [[[122.60822935296085, -8.47210107971507], [122.73355575296085, -8.47210107971507], [122.73355575296085, -8.346774679715072], [122.60822935296085, -8.346774679715072], [122.60822935296085, -8.47210107971507]]]}, "properties": {"provinsi": "Nusa Tenggara Timur", "ip": "Yayasan Bambu Lingkungan Lestari (YBLL)", "status_ro": "Dalam RO", "planting_area_ha": 2.27, "ton_co2e": 56.27}}, {"type": "Feature", "geometry": {"type": "Polygon", "coordinates": [[[121.26410578061918, -8.787674393614946], [121.38943218061918, -8.787674393614946], [121.38943218061918, -8.662347993614947], [121.26410578061918, -8.662347993614947], [121.26410578061918, -8.787674393614946]]]}, "properties": {"provinsi": "Nusa Tenggara Timur", "ip": "Direktorat Jenderal Perhutanan Sosial (PSKL Ngada)", "status_ro": "Luar RO", "planting_area_ha": 382.93, "ton_co2e": 160.82}}, {"type": "Feature", "geometry": {"type": "Polygon", "coordinates": [[[120.53057429100565, -8.44977269263188], [120.65590069100566, -8.44977269263188], [120.65590069100566, -8.324446292631881], [120.53057429100565, -8.324446292631881], [120.53057429100565, -8.44977269263188]]]}, "properties": {"provinsi": "Nusa Tenggara Timur", "ip": "Yayasan Bambu Lingkungan Lestari (YBLL)", "status_ro": "Luar RO", "planting_area_ha": 268.73, "ton_co2e": 106.08}}, {"type": "Feature", "geometry": {"type": "Polygon", "coordinates": [[[110.02525299997896, 0.4579912897121204], [110.13739179997896, 0.4579912897121204], [110.13739179997896, 0.5701300897121205], [110.02525299997896, 0.5701300897121205], [110.02525299997896, 0.4579912897121204]]]}, "properties": {"provinsi": "Kalimantan Barat", "ip": "Direktorat Jenderal Perhutanan Sosial (PSKL Ketapang)", "status_ro": "Dalam RO", "planting_area_ha": 43.15, "ton_co2e": 19.83}}, {"type": "Feature", "geometry": {"type": "Polygon", "coordinates": [[[110.97128638233058, -0.317071557246058], [111.08342518233057, -0.317071557246058], [111.08342518233057, -0.2049327572460578], [110.97128638233058, -0.2049327572460578], [110.97128638233058, -0.317071557246058]]]}, "properties": {"provinsi": "Kalimantan Barat", "ip": "Balai PHL Wilayah X Pontianak", "status_ro": "Dalam RO", "planting_area_ha": 29.38, "ton_co2e": 73.14}}, {"type": "Feature", "geometry": {"type": "Polygon", "coordinates": [[[111.01514363079768, -2.0367118942286897], [111.12728243079768, -2.0367118942286897], [111.12728243079768, -1.9245730942286894], [111.01514363079768, -1.9245730942286894], [111.01514363079768, -2.0367118942286897]]]}, "properties": {"provinsi": "Kalimantan Barat", "ip": "DLHK Kalimantan Barat", "status_ro": "Dalam RO", "planting_area_ha": 35.32, "ton_co2e": 69.55}}, {"type": "Feature", "geometry": {"type": "Polygon", "coordinates": [[[111.91808240847011, 0.46604811259096396], [112.03022120847011, 0.46604811259096396], [112.03022120847011, 0.5781869125909641], [111.91808240847011, 0.5781869125909641], [111.91808240847011, 0.46604811259096396]]]}, "properties": {"provinsi": "Kalimantan Barat", "ip": "BPDAS Kapuas", "status_ro": "Dalam RO", "planting_area_ha": 15.47, "ton_co2e": 81.84}}, {"type": "Feature", "geometry": {"type": "Polygon", "coordinates": [[[111.03256368896791, 0.73232239679081], [111.14470248896791, 0.73232239679081], [111.14470248896791, 0.8444611967908101], [111.03256368896791, 0.8444611967908101], [111.03256368896791, 0.73232239679081]]]}, "properties": {"provinsi": "Kalimantan Barat", "ip": "Direktorat Jenderal Perhutanan Sosial (PSKL Ketapang)", "status_ro": "Luar RO", "planting_area_ha": 689.97, "ton_co2e": 387.17}}, {"type": "Feature", "geometry": {"type": "Polygon", "coordinates": [[[111.71450036716799, -0.0065036560481054745], [111.82663916716798, -0.0065036560481054745], [111.82663916716798, 0.1056351439518947], [111.71450036716799, 0.1056351439518947], [111.71450036716799, -0.0065036560481054745]]]}, "properties": {"provinsi": "Kalimantan Barat", "ip": "Balai PHL Wilayah X Pontianak", "status_ro": "Luar RO", "planting_area_ha": 616.57, "ton_co2e": 829.33}}, {"type": "Feature", "geometry": {"type": "Polygon", "coordinates": [[[110.58785862769203, 0.38215426714648976], [110.69999742769203, 0.38215426714648976], [110.69999742769203, 0.49429306714648996], [110.58785862769203, 0.49429306714648996], [110.58785862769203, 0.38215426714648976]]]}, "properties": {"provinsi": "Kalimantan Barat", "ip": "DLHK Kalimantan Barat", "status_ro": "Luar RO", "planting_area_ha": 306.34, "ton_co2e": 939.37}}, {"type": "Feature", "geometry": {"type": "Polygon", "coordinates": [[[110.95367505508982, -2.250732614508974], [111.06581385508981, -2.250732614508974], [111.06581385508981, -2.138593814508974], [110.95367505508982, -2.138593814508974], [110.95367505508982, -2.250732614508974]]]}, "properties": {"provinsi": "Kalimantan Barat", "ip": "BPDAS Kapuas", "status_ro": "Luar RO", "planting_area_ha": 4.74, "ton_co2e": 1049.42}}, {"type": "Feature", "geometry": {"type": "Polygon", "coordinates": [[[112.69744708986721, -1.1485444354145335], [112.7997852898672, -1.1485444354145335], [112.7997852898672, -1.0462062354145334], [112.69744708986721, -1.0462062354145334], [112.69744708986721, -1.1485444354145335]]]}, "properties": {"provinsi": "Kalimantan Tengah", "ip": "Balai PHL Wilayah XII Palangkaraya", "status_ro": "Dalam RO", "planting_area_ha": 18.96, "ton_co2e": 10.01}}, {"type": "Feature", "geometry": {"type": "Polygon", "coordinates": [[[111.37564296320495, -1.5936418528386165], [111.47798116320494, -1.5936418528386165], [111.47798116320494, -1.4913036528386163], [111.37564296320495, -1.4913036528386163], [111.37564296320495, -1.5936418528386165]]]}, "properties": {"provinsi": "Kalimantan Tengah", "ip": "BPDAS Kahyan", "status_ro": "Dalam RO", "planting_area_ha": 5.18, "ton_co2e": 0.43}}, {"type": "Feature", "geometry": {"type": "Polygon", "coordinates": [[[114.57642480462003, -1.9515288827154538], [114.67876300462002, -1.9515288827154538], [114.67876300462002, -1.8491906827154536], [114.57642480462003, -1.8491906827154536], [114.57642480462003, -1.9515288827154538]]]}, "properties": {"provinsi": "Kalimantan Tengah", "ip": "Balai PHL Wilayah XII Palangkaraya", "status_ro": "Luar RO", "planting_area_ha": 191.67, "ton_co2e": 278.27}}, {"type": "Feature", "geometry": {"type": "Polygon", "coordinates": [[[114.52924748624572, 0.011002094448536982], [114.63158568624571, 0.011002094448536982], [114.63158568624571, 0.11334029444853708], [114.52924748624572, 0.11334029444853708], [114.52924748624572, 0.011002094448536982]]]}, "properties": {"provinsi": "Kalimantan Tengah", "ip": "BPDAS Kahyan", "status_ro": "Luar RO", "planting_area_ha": 1445.06, "ton_co2e": 429.7}}, {"type": "Feature", "geometry": {"type": "Polygon", "coordinates": [[[115.5561007728712, -3.589497214203367], [115.62869997287122, -3.589497214203367], [115.62869997287122, -3.5168980142033672], [115.5561007728712, -3.5168980142033672], [115.5561007728712, -3.589497214203367]]]}, "properties": {"provinsi": "Kalimantan Selatan", "ip": "Balai PHL Wilayah XI Banjarbaru", "status_ro": "Dalam RO", "planting_area_ha": 392.93, "ton_co2e": 305.86}}, {"type": "Feature", "geometry": {"type": "Polygon", "coordinates": [[[115.8358326157686, -2.4168711399394915], [115.90843181576861, -2.4168711399394915], [115.90843181576861, -2.3442719399394916], [115.8358326157686, -2.3442719399394916], [115.8358326157686, -2.4168711399394915]]]}, "properties": {"provinsi": "Kalimantan Selatan", "ip": "BPDAS Barito", "status_ro": "Dalam RO", "planting_area_ha": 127.58, "ton_co2e": 566.97}}, {"type": "Feature", "geometry": {"type": "Polygon", "coordinates": [[[116.18852960356693, -2.493744278272112], [116.26112880356695, -2.493744278272112], [116.26112880356695, -2.421145078272112], [116.18852960356693, -2.421145078272112], [116.18852960356693, -2.493744278272112]]]}, "properties": {"provinsi": "Kalimantan Selatan", "ip": "Dinas Kehutanan Kalimantan Selatan", "status_ro": "Dalam RO", "planting_area_ha": 30.19, "ton_co2e": 198.44}}, {"type": "Feature", "geometry": {"type": "Polygon", "coordinates": [[[115.42797153263082, -3.236324748593189], [115.50057073263083, -3.236324748593189], [115.50057073263083, -3.163725548593189], [115.42797153263082, -3.163725548593189], [115.42797153263082, -3.236324748593189]]]}, "properties": {"provinsi": "Kalimantan Selatan", "ip": "Balai PHL Wilayah XI Banjarbaru", "status_ro": "Luar RO", "planting_area_ha": 76.08, "ton_co2e": 699.0}}, {"type": "Feature", "geometry": {"type": "Polygon", "coordinates": [[[115.87270665913154, -2.9662710259670546], [115.94530585913155, -2.9662710259670546], [115.94530585913155, -2.8936718259670546], [115.87270665913154, -2.8936718259670546], [115.87270665913154, -2.9662710259670546]]]}, "properties": {"provinsi": "Kalimantan Selatan", "ip": "BPDAS Barito", "status_ro": "Luar RO", "planting_area_ha": 618.28, "ton_co2e": 862.42}}, {"type": "Feature", "geometry": {"type": "Polygon", "coordinates": [[[115.49912133403383, -2.8287160666492164], [115.57172053403384, -2.8287160666492164], [115.57172053403384, -2.7561168666492164], [115.49912133403383, -2.7561168666492164], [115.49912133403383, -2.8287160666492164]]]}, "properties": {"provinsi": "Kalimantan Selatan", "ip": "Dinas Kehutanan Kalimantan Selatan", "status_ro": "Luar RO", "planting_area_ha": 491.83, "ton_co2e": 746.05}}, {"type": "Feature", "geometry": {"type": "Polygon", "coordinates": [[[116.02746361099435, 1.1779875000537596], [116.13151801099434, 1.1779875000537596], [116.13151801099434, 1.2820419000537595], [116.02746361099435, 1.2820419000537595], [116.02746361099435, 1.1779875000537596]]]}, "properties": {"provinsi": "Kalimantan Timur", "ip": "BPDAS Mahakam Berau", "status_ro": "Dalam RO", "planting_area_ha": 592.59, "ton_co2e": 1102.41}}, {"type": "Feature", "geometry": {"type": "Polygon", "coordinates": [[[116.17763147317504, 0.5771460900003778], [116.28168587317504, 0.5771460900003778], [116.28168587317504, 0.6812004900003776], [116.17763147317504, 0.6812004900003776], [116.17763147317504, 0.5771460900003778]]]}, "properties": {"provinsi": "Kalimantan Timur", "ip": "BPDAS Mahakam Berau", "status_ro": "Luar RO", "planting_area_ha": 7.76, "ton_co2e": 14.44}}, {"type": "Feature", "geometry": {"type": "Polygon", "coordinates": [[[120.74858836820034, 0.7506287845617647], [120.84886876820035, 0.7506287845617647], [120.84886876820035, 0.8509091845617647], [120.74858836820034, 0.8509091845617647], [120.74858836820034, 0.7506287845617647]]]}, "properties": {"provinsi": "Sulawesi Tengah", "ip": "Direktorat Jenderal Perhutanan Sosial (PSKL Poso)", "status_ro": "Dalam RO", "planting_area_ha": 5.18, "ton_co2e": 2.48}}, {"type": "Feature", "geometry": {"type": "Polygon", "coordinates": [[[121.72114050227815, -1.1364460979743818], [121.82142090227815, -1.1364460979743818], [121.82142090227815, -1.0361656979743818], [121.72114050227815, -1.0361656979743818], [121.72114050227815, -1.1364460979743818]]]}, "properties": {"provinsi": "Sulawesi Tengah", "ip": "Balai PHL Wilayah XIV Palu", "status_ro": "Dalam RO", "planting_area_ha": 0.39, "ton_co2e": 2.89}}, {"type": "Feature", "geometry": {"type": "Polygon", "coordinates": [[[121.51699269730938, -1.357839839794276], [121.61727309730938, -1.357839839794276], [121.61727309730938, -1.257559439794276], [121.51699269730938, -1.257559439794276], [121.51699269730938, -1.357839839794276]]]}, "properties": {"provinsi": "Sulawesi Tengah", "ip": "Balai PHL Wilayah XV Makasar", "status_ro": "Dalam RO", "planting_area_ha": 11.63, "ton_co2e": 10.86}}, {"type": "Feature", "geometry": {"type": "Polygon", "coordinates": [[[123.31393259128127, -0.8982718776054779], [123.41421299128127, -0.8982718776054779], [123.41421299128127, -0.797991477605478], [123.31393259128127, -0.797991477605478], [123.31393259128127, -0.8982718776054779]]]}, "properties": {"provinsi": "Sulawesi Tengah", "ip": "Direktorat Jenderal Perhutanan Sosial (PSKL Poso)", "status_ro": "Luar RO", "planting_area_ha": 91.31, "ton_co2e": 86.58}}, {"type": "Feature", "geometry": {"type": "Polygon", "coordinates": [[[123.30461056091588, -0.7651199665873358], [123.40489096091588, -0.7651199665873358], [123.40489096091588, -0.6648395665873359], [123.30461056091588, -0.6648395665873359], [123.30461056091588, -0.7651199665873358]]]}, "properties": {"provinsi": "Sulawesi Tengah", "ip": "Balai PHL Wilayah XIV Palu", "status_ro": "Luar RO", "planting_area_ha": 40.49, "ton_co2e": 80.35}}, {"type": "Feature", "geometry": {"type": "Polygon", "coordinates": [[[121.26893256638752, -1.2884641127852139], [121.36921296638752, -1.2884641127852139], [121.36921296638752, -1.188183712785214], [121.26893256638752, -1.188183712785214], [121.26893256638752, -1.2884641127852139]]]}, "properties": {"provinsi": "Sulawesi Tengah", "ip": "Balai PHL Wilayah XV Makasar", "status_ro": "Luar RO", "planting_area_ha": 86.03, "ton_co2e": 38.56}}, {"type": "Feature", "geometry": {"type": "Polygon", "coordinates": [[[119.47595984111653, -3.3970527918852143], [119.59219284111653, -3.3970527918852143], [119.59219284111653, -3.280819791885214], [119.47595984111653, -3.280819791885214], [119.47595984111653, -3.3970527918852143]]]}, "properties": {"provinsi": "Sulawesi Selatan", "ip": "Direktorat Jenderal Perhutanan Sosial (PSKL Enrekang)", "status_ro": "Dalam RO", "planting_area_ha": 44.8, "ton_co2e": 37.29}}, {"type": "Feature", "geometry": {"type": "Polygon", "coordinates": [[[119.42620837534754, -5.20066303570243], [119.54244137534754, -5.20066303570243], [119.54244137534754, -5.084430035702431], [119.42620837534754, -5.084430035702431], [119.42620837534754, -5.20066303570243]]]}, "properties": {"provinsi": "Sulawesi Selatan", "ip": "Balai PHL Wilayah XV Makasar", "status_ro": "Dalam RO", "planting_area_ha": 12.48, "ton_co2e": 18.93}}, {"type": "Feature", "geometry": {"type": "Polygon", "coordinates": [[[120.37178538465733, -2.5305617731565144], [120.48801838465732, -2.5305617731565144], [120.48801838465732, -2.414328773156514], [120.37178538465733, -2.414328773156514], [120.37178538465733, -2.5305617731565144]]]}, "properties": {"provinsi": "Sulawesi Selatan", "ip": "Direktorat Jenderal Perhutanan Sosial (PSKL Enrekang)", "status_ro": "Luar RO", "planting_area_ha": 205.07, "ton_co2e": 276.92}}, {"type": "Feature", "geometry": {"type": "Polygon", "coordinates": [[[119.80087681206275, -4.968464497014971], [119.91710981206275, -4.968464497014971], [119.91710981206275, -4.852231497014972], [119.80087681206275, -4.852231497014972], [119.80087681206275, -4.968464497014971]]]}, "properties": {"provinsi": "Sulawesi Selatan", "ip": "Balai PHL Wilayah XV Makasar", "status_ro": "Luar RO", "planting_area_ha": 110.7, "ton_co2e": 33.0}}, {"type": "Feature", "geometry": {"type": "Polygon", "coordinates": [[[124.32768476452124, 0.6643879745379988], [124.43316536452123, 0.6643879745379988], [124.43316536452123, 0.7698685745379987], [124.32768476452124, 0.7698685745379987], [124.32768476452124, 0.6643879745379988]]]}, "properties": {"provinsi": "Sulawesi Utara", "ip": "Balai PHL XIV Palu", "status_ro": "Luar RO", "planting_area_ha": 7, "ton_co2e": 0.0}}, {"type": "Feature", "geometry": {"type": "Polygon", "coordinates": [[[119.51480659368134, -2.3630344498821927], [119.57113179368135, -2.3630344498821927], [119.57113179368135, -2.306709249882193], [119.51480659368134, -2.306709249882193], [119.51480659368134, -2.3630344498821927]]]}, "properties": {"provinsi": "Sulawesi Barat", "ip": "Balai PHL Wilayah XV Makasar", "status_ro": "Luar RO", "planting_area_ha": 5.75, "ton_co2e": 38.3}}, {"type": "Feature", "geometry": {"type": "Polygon", "coordinates": [[[129.04010288650105, -3.3670096631341866], [129.22381988650105, -3.3670096631341866], [129.22381988650105, -3.183292663134187], [129.04010288650105, -3.183292663134187], [129.04010288650105, -3.3670096631341866]]]}, "properties": {"provinsi": "Maluku", "ip": "Balai PHL XVI Ambon", "status_ro": "Dalam RO", "planting_area_ha": 1.35, "ton_co2e": 6.53}}, {"type": "Feature", "geometry": {"type": "Polygon", "coordinates": [[[130.02609537835258, -3.3398312739404115], [130.20981237835258, -3.3398312739404115], [130.20981237835258, -3.1561142739404118], [130.02609537835258, -3.1561142739404118], [130.02609537835258, -3.3398312739404115]]]}, "properties": {"provinsi": "Maluku", "ip": "BPDAS Waehapu Batu Merah", "status_ro": "Dalam RO", "planting_area_ha": 1.82, "ton_co2e": 5.18}}, {"type": "Feature", "geometry": {"type": "Polygon", "coordinates": [[[127.86697320315284, -3.491112968876858], [128.05069020315284, -3.491112968876858], [128.05069020315284, -3.3073959688768584], [127.86697320315284, -3.3073959688768584], [127.86697320315284, -3.491112968876858]]]}, "properties": {"provinsi": "Maluku", "ip": "Balai PHL XVI Ambon", "status_ro": "Luar RO", "planting_area_ha": 315.77, "ton_co2e": 827.77}}, {"type": "Feature", "geometry": {"type": "Polygon", "coordinates": [[[130.2910035238968, -3.333223170361168], [130.4747205238968, -3.333223170361168], [130.4747205238968, -3.1495061703611684], [130.2910035238968, -3.1495061703611684], [130.2910035238968, -3.333223170361168]]]}, "properties": {"provinsi": "Maluku", "ip": "BPDAS Waehapu Batu Merah", "status_ro": "Luar RO", "planting_area_ha": 136.06, "ton_co2e": 841.05}}, {"type": "Feature", "geometry": {"type": "Polygon", "coordinates": [[[128.22216553433356, 1.019705711740057], [128.33496873433353, 1.019705711740057], [128.33496873433353, 1.132508911740057], [128.22216553433356, 1.132508911740057], [128.22216553433356, 1.019705711740057]]]}, "properties": {"provinsi": "Maluku Utara", "ip": "Balai PHL XVI Ambon", "status_ro": "Luar RO", "planting_area_ha": 10, "ton_co2e": 0.35}}, {"type": "Feature", "geometry": {"type": "Polygon", "coordinates": [[[137.59115572745876, -2.339123768345703], [137.72526132745875, -2.339123768345703], [137.72526132745875, -2.205018168345703], [137.59115572745876, -2.205018168345703], [137.59115572745876, -2.339123768345703]]]}, "properties": {"provinsi": "Papua", "ip": "Balai PHL Wilayah VII Jayapura", "status_ro": "Dalam RO", "planting_area_ha": 18.35, "ton_co2e": 9.36}}, {"type": "Feature", "geometry": {"type": "Polygon", "coordinates": [[[140.00674088823817, -2.720810473743322], [140.14084648823817, -2.720810473743322], [140.14084648823817, -2.5867048737433223], [140.00674088823817, -2.5867048737433223], [140.00674088823817, -2.720810473743322]]]}, "properties": {"provinsi": "Papua", "ip": "Balai PHL Wilayah VII Jayapura", "status_ro": "Luar RO", "planting_area_ha": 14.4, "ton_co2e": 7.35}}, {"type": "Feature", "geometry": {"type": "Polygon", "coordinates": [[[133.39324067072246, -3.177465243029001], [133.46574747072245, -3.177465243029001], [133.46574747072245, -3.104958443029001], [133.39324067072246, -3.104958443029001], [133.39324067072246, -3.177465243029001]]]}, "properties": {"provinsi": "Papua Barat", "ip": "Balai PHL Wilayah XVIII Manokwari", "status_ro": "Luar RO", "planting_area_ha": 4.5, "ton_co2e": 3.23}}]}